[{"OBJECT_NAME":"STARLINK-30316","OBJECT_ID":"2023-124L","EPOCH":"2026-03-09T16:36:06.812064","MEAN_MOTION":15.30184915,"ECCENTRICITY":0.00011766,"INCLINATION":53.161,"RA_OF_ASC_NODE":207.0679,"ARG_OF_PERICENTER":90.1891,"MEAN_ANOMALY":269.9245,"EPHEMERIS_TYPE":0,"CLASSIFICATION_TYPE":"U","NORAD_CAT_ID":57673,"ELEMENT_SET_NO":999,"REV_AT_EPOCH":14356,"BSTAR":-1.2465199e-5,"MEAN_MOTION_DOT":-7.28e-6,"MEAN_MOTION_DDOT":0},{"OBJECT_NAME":"STARLINK-30494","OBJECT_ID":"2023-151G","EPOCH":"2026-03-09T08:39:06.366240","MEAN_MOTION":15.28417441,"ECCENTRICITY":0.00011553,"INCLINATION":43.0027,"RA_OF_ASC_NODE":192.4566,"ARG_OF_PERICENTER":241.5536,"MEAN_ANOMALY":118.52,"EPHEMERIS_TYPE":0,"CLASSIFICATION_TYPE":"U","NORAD_CAT_ID":57970,"ELEMENT_SET_NO":999,"REV_AT_EPOCH":13740,"BSTAR":-3.569111e-5,"MEAN_MOTION_DOT":-1.272e-5,"MEAN_MOTION_DDOT":0}]
